[{"OBJECT_NAME":"STARLINK-6262","OBJECT_ID":"2023-088AV","EPOCH":"2026-03-09T22:00:01.999584","MEAN_MOTION":15.08522241,"ECCENTRICITY":0.00013561,"INCLINATION":43.0008,"RA_OF_ASC_NODE":92.9596,"ARG_OF_PERICENTER":291.1989,"MEAN_ANOMALY":189.7369,"EPHEMERIS_TYPE":0,"CLASSIFICATION_TYPE":"U","NORAD_CAT_ID":57091,"ELEMENT_SET_NO":999,"REV_AT_EPOCH":578,"BSTAR":0.0034695324,"MEAN_MOTION_DOT":0.00055285,"MEAN_MOTION_DDOT":0},{"OBJECT_NAME":"ICEYE-X65","OBJECT_ID":"2025-248H","EPOCH":"2026-03-09T01:43:36.801408","MEAN_MOTION":15.08278623,"ECCENTRICITY":0.0005141,"INCLINATION":45.3996,"RA_OF_ASC_NODE":300.9889,"ARG_OF_PERICENTER":200.5324,"MEAN_ANOMALY":159.5352,"EPHEMERIS_TYPE":0,"CLASSIFICATION_TYPE":"U","NORAD_CAT_ID":66300,"ELEMENT_SET_NO":999,"REV_AT_EPOCH":2040,"BSTAR":0.00023069723,"MEAN_MOTION_DOT":3.385e-5,"MEAN_MOTION_DDOT":0}]
